NAVSTAR 77 (USA 289)    
1 43873U 18109A   24080.57860981  .00000017  00000+0  00000+0 0  9998
2 43873  55.2604 124.5279 0028334 195.0364 337.4121  2.00552132 38650
